43578,IRIDIUM 159,2018,100.4,860.0,+,86.4,Active,1,LEO,USA,USA,Commercial/Government,Communications,Falcon,1 43578U 18061K   23350.79678563  .00000345  00000+0  11603-3 0  9992,2 43578  86.3962  78.4456 0002025 114.5539 245.5868 14.34217093282468,14.34217093,0.0002025,LEO
43922,IRIDIUM 180,2019,100.4,860.0,+,86.4,Active,1,LEO,USA,USA,Commercial/Government,Communications,Falcon,1 43922U 19002A   23351.14512451  .00000257  00000+0  84854-4 0  9995,2 43922  86.3973  15.1740 0001981  93.9464 266.1958 14.34216912258162,14.34216912,0.0001981,LEO
43923,IRIDIUM 176,2019,97.81,860.0,+,86.61,Active,1,LEO,USA,USA,Commercial/Government,Communications,Falcon,1 43923U 19002B   23350.60504589  .00001042  00000+0  16132-3 0  9995,2 43923  86.6102  15.4312 0002367  91.8869 268.2620 14.72249096264834,14.72249096,0.0002367,LEO
43924,IRIDIUM 168,2019,100.4,860.0,+,86.4,Active,1,LEO,USA,USA,Commercial/Government,Communications,Falcon,1 43924U 19002C   23350.51086589  .00000296  00000+0  98615-4 0  9998,2 43924  86.3976  15.4909 0002067  94.2215 265.9217 14.34220866258013,14.34220866,0.0002067,LEO
43925,IRIDIUM 173,2019,100.4,860.0,+,86.4,Active,1,LEO,USA,USA,Commercial/Government,Communications,Falcon,1 43925U 19002D   23350.49817917  .00000294  00000+0  98058-4 0  9992,2 43925  86.3972  15.4224 0002215  97.9645 262.1802 14.34219589257997,14.34219589,0.0002215,LEO
43926,IRIDIUM 169,2019,100.1,860.0,+,86.42,Active,1,LEO,USA,USA,Commercial/Government,Communications,Falcon,1 43926U 19002E   23350.70676862  .00000393  00000+0  12185-3 0  9995,2 43926  86.4231  46.9417 0004913 105.5347 254.6394 14.38599219258899,14.38599219,0.0004913,LEO
43927,IRIDIUM 172,2019,100.4,860.0,+,86.4,Active,1,LEO,USA,USA,Commercial/Government,Communications,Falcon,1 43927U 19002F   23350.63138074  .00000309  00000+0  10313-3 0  9994,2 43927  86.3972  15.3719 0002086  92.0959 268.0476 14.34219262258022,14.34219262,0.0002086,LEO
43928,IRIDIUM 175,2019,97.81,860.0,+,86.15,Active,1,LEO,USA,USA,Commercial/Government,Communications,Falcon,1 43928U 19002G   23350.53113680  .00001135  00000+0  17603-3 0  9997,2 43928  86.1509 358.9930 0002433  90.5601 269.5895 14.72239996264814,14.72239996,0.0002433,LEO
